[{"OBJECT_NAME":"SITRO-AIS 5 (KATYS)","OBJECT_ID":"2023-091L","EPOCH":"2026-03-09T22:36:44.932608","MEAN_MOTION":15.27079182,"ECCENTRICITY":0.00133776,"INCLINATION":97.5176,"RA_OF_ASC_NODE":132.0172,"ARG_OF_PERICENTER":94.5677,"MEAN_ANOMALY":265.709,"EPHEMERIS_TYPE":0,"CLASSIFICATION_TYPE":"U","NORAD_CAT_ID":57176,"ELEMENT_SET_NO":999,"REV_AT_EPOCH":14918,"BSTAR":0.00057530772,"MEAN_MOTION_DOT":0.00015262,"MEAN_MOTION_DDOT":0},{"OBJECT_NAME":"STARLINK-35366","OBJECT_ID":"2025-263AD","EPOCH":"2026-03-09T03:16:21.009792","MEAN_MOTION":15.27591667,"ECCENTRICITY":0.00072204,"INCLINATION":43.0014,"RA_OF_ASC_NODE":353.8669,"ARG_OF_PERICENTER":234.1942,"MEAN_ANOMALY":125.8239,"EPHEMERIS_TYPE":0,"CLASSIFICATION_TYPE":"U","NORAD_CAT_ID":66512,"ELEMENT_SET_NO":999,"REV_AT_EPOCH":1881,"BSTAR":0.0010385692,"MEAN_MOTION_DOT":0.00028456,"MEAN_MOTION_DDOT":0}]
